NORAD_CAT_ID,OBJECT_NAME,OBJECT_TYPE,EPOCH,MEAN_MOTION,ECCENTRICITY,INCLINATION,RA_OF_ASC_NODE,ARG_OF_PERICENTER,MEAN_ANOMALY,BSTAR,MEAN_MOTION_DOT,MEAN_MOTION_DDOT,TLE_LINE0,TLE_LINE1,TLE_LINE2,SEMIMAJOR_AXIS,PERIOD,APOGEE,PERIGEE,DECAYED
54088.0,STARLINK-5153,PAYLOAD,2023-06-06 10:48:19,15.0884317,0.000106,53.2151,175.9001,85.9347,274.1766,4.5886e-05,4.43e-06,0.0,0 STARLINK-5153,1 54088U 22136AP  23157.45022689  .00000443  00000-0  45886-4 0  9999,2 54088  53.2151 175.9001 0001060  85.9347 274.1766 15.08843170 34928,6917.871,95.437,540.469,539.002,0.0
54088.0,STARLINK-5153,PAYLOAD,2023-06-07 10:39:06,15.08842936,0.0001035,53.2154,171.4399,85.3473,274.7637,7.198e-05,8.58e-06,0.0,0 STARLINK-5153,1 54088U 22136AP  23158.44382507  .00000858  00000-0  71980-4 0  9991,2 54088  53.2154 171.4399 0001035  85.3473 274.7637 15.08842936 35077,6917.871,95.437,540.452,539.02,0.0
54088.0,STARLINK-5153,PAYLOAD,2023-06-08 10:29:53,15.0883908,0.0001072,53.2151,166.9795,84.5012,275.6102,9.5995e-06,-1.35e-06,0.0,0 STARLINK-5153,1 54088U 22136AP  23159.43742898 -.00000135  00000-0  95995-5 0  9996,2 54088  53.2151 166.9795 0001072  84.5012 275.6102 15.08839080 35695,6917.883,95.438,540.49,539.007,0.0
54088.0,STARLINK-5153,PAYLOAD,2023-06-09 07:09:54,15.08839531,0.00011,53.2153,163.1136,95.6467,264.465,1.7289e-05,-1.3e-07,0.0,0 STARLINK-5153,1 54088U 22136AP  23160.29854836 -.00000013  00000-0  17289-4 0  9992,2 54088  53.2153 163.1136 0001100  95.6467 264.4650 15.08839531 35352,6917.882,95.438,540.508,538.986,0.0
54088.0,STARLINK-5153,PAYLOAD,2023-06-09 16:42:13,15.0883645,0.0001108,53.2154,161.3293,80.411,279.7007,-7.7799e-06,-4.12e-06,0.0,0 STARLINK-5153,1 54088U 22136AP  23160.69599205 -.00000412  00000-0 -77799-5 0  9999,2 54088  53.2154 161.3293 0001108  80.4110 279.7007 15.08836450 35882,6917.891,95.438,540.523,538.99,0.0
54088.0,STARLINK-5153,PAYLOAD,2023-06-10 07:00:42,15.08832699,0.0001156,53.2153,158.6538,93.7009,266.4115,7.6729e-06,-1.66e-06,0.0,0 STARLINK-5153,1 54088U 22136AP  23161.29215629 -.00000166  00000-0  76729-5 0  9998,2 54088  53.2153 158.6538 0001156  93.7009 266.4115 15.08832699 35502,6917.903,95.438,540.567,538.968,0.0
54088.0,STARLINK-5153,PAYLOAD,2023-06-11 08:26:52,15.0883821,0.000113,53.2157,153.8959,88.5834,271.5287,4.8502e-05,4.84e-06,0.0,0 STARLINK-5153,1 54088U 22136AP  23162.35199514  .00000484  00000-0  48502-4 0  9999,2 54088  53.2157 153.8959 0001130  88.5834 271.5287 15.08838210 36132,6917.886,95.438,540.533,538.969,0.0
54088.0,STARLINK-5153,PAYLOAD,2023-06-11 11:37:38,15.08840178,0.000112,53.2156,153.301,87.4953,272.6168,6.3242e-05,7.19e-06,0.0,0 STARLINK-5153,1 54088U 22136AP  23162.48447367  .00000719  00000-0  63242-4 0  9994,2 54088  53.2156 153.3010 0001120  87.4953 272.6168 15.08840178 35688,6917.88,95.438,540.52,538.97,0.0
54088.0,STARLINK-5153,PAYLOAD,2023-06-11 16:23:48,15.08837805,0.0001119,53.2158,152.4089,90.3291,269.7829,6.8095e-05,7.96e-06,0.0,0 STARLINK-5153,1 54088U 22136AP  23162.68319524  .00000796  00000-0  68095-4 0  9995,2 54088  53.2158 152.4089 0001119  90.3291 269.7829 15.08837805 35710,6917.887,95.438,540.526,538.978,0.0
54088.0,STARLINK-5153,PAYLOAD,2023-06-11 22:45:20,15.08837875,0.0001087,53.2156,151.2191,90.175,269.9367,0.00010011,1.306e-05,0.0,0 STARLINK-5153,1 54088U 22136AP  23162.94815451  .00001306  00000-0  10011-3 0  9996,2 54088  53.2156 151.2191 0001087  90.1750 269.9367 15.08837875 35751,6917.887,95.438,540.504,539.0,0.0
54088.0,STARLINK-5153,PAYLOAD,2023-06-12 16:14:35,15.0883894,0.0001076,53.2156,147.9476,86.9304,273.1812,6.6378e-05,7.69e-06,0.0,0 STARLINK-5153,1 54088U 22136AP  23163.67679533  .00000769  00000-0  66378-4 0  9996,2 54088  53.2156 147.9476 0001076  86.9304 273.1812 15.08838940 36336,6917.884,95.438,540.493,539.004,0.0
54088.0,STARLINK-5153,PAYLOAD,2023-06-12 22:36:07,15.08837681,0.0001118,53.2153,146.7584,88.3362,271.7759,1.0654e-05,-1.18e-06,0.0,0 STARLINK-5153,1 54088U 22136AP  23163.94175857 -.00000118  00000-0  10654-4 0  9991,2 54088  53.2153 146.7584 0001118  88.3362 271.7759 15.08837681 35904,6917.887,95.438,540.526,538.979,0.0
54088.0,STARLINK-5153,PAYLOAD,2023-06-13 08:08:26,15.08839537,0.0001193,53.2157,144.9737,88.1744,271.9385,2.9314e-05,1.79e-06,0.0,0 STARLINK-5153,1 54088U 22136AP  23164.33919714  .00000179  00000-0  29314-4 0  9992,2 54088  53.2157 144.9737 0001193  88.1744 271.9385 15.08839537 35968,6917.882,95.438,540.572,538.922,0.0
54088.0,STARLINK-5153,PAYLOAD,2023-06-13 22:26:54,15.08840739,0.0001195,53.2159,142.2974,87.8409,272.272,3.6565e-05,2.94e-06,0.0,0 STARLINK-5153,1 54088U 22136AP  23164.93535580  .00000294  00000-0  36565-4 0  9997,2 54088  53.2159 142.2974 0001195  87.8409 272.2720 15.08840739 36526,6917.878,95.438,540.57,538.916,0.0
54088.0,STARLINK-5153,PAYLOAD,2023-06-14 07:59:13,15.08846937,0.0001217,53.2158,140.5137,86.4735,273.6396,5.135e-05,5.3e-06,0.0,0 STARLINK-5153,1 54088U 22136AP  23165.33279054  .00000530  00000-0  51350-4 0  9995,2 54088  53.2158 140.5137 0001217  86.4735 273.6396 15.08846937 36114,6917.859,95.437,540.566,538.882,0.0
54088.0,STARLINK-5153,PAYLOAD,2023-06-14 15:56:09,15.08840265,0.0001238,53.2159,139.0267,86.6855,273.4279,2.8401e-05,1.64e-06,0.0,0 STARLINK-5153,1 54088U 22136AP  23165.66399477  .00000164  00000-0  28401-4 0  9997,2 54088  53.2159 139.0267 0001238  86.6855 273.4279 15.08840265 36161,6917.88,95.438,540.601,538.888,0.0
54088.0,STARLINK-5153,PAYLOAD,2023-06-15 03:03:51,15.08835572,0.0001264,53.2161,136.9453,88.9866,271.1271,4.0941e-05,3.64e-06,0.0,0 STARLINK-5153,1 54088U 22136AP  23166.12767834  .00000364  00000-0  40941-4 0  9990,2 54088  53.2161 136.9453 0001264  88.9866 271.1271 15.08835572 36705,6917.894,95.438,540.633,538.885,0.0
54088.0,STARLINK-5153,PAYLOAD,2023-06-15 07:50:00,15.0883665,0.0001294,53.216,136.0523,95.7813,264.3327,3.4991e-05,2.69e-06,0.0,0 STARLINK-5153,1 54088U 22136AP  23166.32639784  .00000269  00000-0  34991-4 0  9996,2 54088  53.2160 136.0523 0001294  95.7813 264.3327 15.08836650 36269,6917.891,95.438,540.651,538.86,0.0
54088.0,STARLINK-5153,PAYLOAD,2023-06-16 04:30:01,15.08845671,0.0001261,53.2159,132.1865,95.6098,264.5038,4.7536e-05,4.69e-06,0.0,0 STARLINK-5153,1 54088U 22136AP  23167.18751240  .00000469  00000-0  47536-4 0  9994,2 54088  53.2159 132.1865 0001261  95.6098 264.5038 15.08845671 36861,6917.863,95.437,540.6,538.856,0.0
54088.0,STARLINK-5153,PAYLOAD,2023-06-16 21:59:16,15.08828884,0.0001213,53.2156,128.9163,95.0872,265.0258,2.3753e-06,-2.5e-06,0.0,0 STARLINK-5153,1 54088U 22136AP  23167.91616530 -.00000250  00000-0  23753-5 0  9992,2 54088  53.2156 128.9163 0001213  95.0872 265.0258 15.08828884 36972,6917.914,95.438,540.619,538.94,0.0
54088.0,STARLINK-5153,PAYLOAD,2023-06-17 04:20:48,15.08833568,0.0001187,53.216,127.726,93.3037,266.8091,4.1999e-05,3.81e-06,0.0,0 STARLINK-5153,1 54088U 22136AP  23168.18112259  .00000381  00000-0  41999-4 0  9996,2 54088  53.2160 127.7260 0001187  93.3037 266.8091 15.08833568 36548,6917.9,95.438,540.586,538.944,0.0
54088.0,STARLINK-5153,PAYLOAD,2023-06-17 13:53:08,15.08833345,0.0001173,53.2161,125.9418,92.2512,267.8614,1.1727e-05,-1.01e-06,0.0,0 STARLINK-5153,1 54088U 22136AP  23168.57856513 -.00000101  00000-0  11727-4 0  9994,2 54088  53.2161 125.9418 0001173  92.2512 267.8614 15.08833345 36607,6917.901,95.438,540.577,538.954,0.0
54088.0,STARLINK-5153,PAYLOAD,2023-06-17 23:25:27,15.08828878,0.0001164,53.2163,124.1583,93.7936,266.3189,-6.5375e-05,-1.328e-05,0.0,0 STARLINK-5153,1 54088U 22136AP  23168.97601303 -.00001328  00000-0 -65375-4 0  9994,2 54088  53.2163 124.1583 0001164  93.7936 266.3189 15.08828878 37134,6917.914,95.438,540.585,538.974,0.0
54088.0,STARLINK-5153,PAYLOAD,2023-06-18 05:46:59,15.08834899,0.0001181,53.2158,122.9699,103.8275,256.2849,-8.2809e-06,-4.2e-06,0.0,0 STARLINK-5153,1 54088U 22136AP  23169.24096862 -.00000420  00000-0 -82809-5 0  9997,2 54088  53.2158 122.9699 0001181 103.8275 256.2849 15.08834899 37175,6917.896,95.438,540.578,538.944,0.0
54088.0,STARLINK-5153,PAYLOAD,2023-06-18 13:43:55,15.08838387,0.0001172,53.216,121.4831,102.84,257.2723,-1.2257e-05,-4.83e-06,0.0,0 STARLINK-5153,1 54088U 22136AP  23169.57216742 -.00000483  00000-0 -12257-4 0  9992,2 54088  53.2160 121.4831 0001172 102.8400 257.2723 15.08838387 36750,6917.885,95.438,540.561,538.94,0.0
54088.0,STARLINK-5153,PAYLOAD,2023-06-19 07:13:09,15.08840686,0.0001181,53.216,118.212,106.4727,253.6395,9.8534e-05,1.281e-05,0.0,0 STARLINK-5153,1 54088U 22136AP  23170.30080469  .00001281  00000-0  98534-4 0  9997,2 54088  53.2160 118.2120 0001181 106.4727 253.6395 15.08840686 37332,6917.878,95.438,540.56,538.926,0.0
54088.0,STARLINK-5153,PAYLOAD,2023-06-19 13:34:42,15.08840381,0.000115,53.2162,117.0227,98.6152,261.497,9.2711e-05,1.188e-05,0.0,0 STARLINK-5153,1 54088U 22136AP  23170.56576559  .00001188  00000-0  92711-4 0  9992,2 54088  53.2162 117.0227 0001150  98.6152 261.4970 15.08840381 36909,6917.879,95.438,540.54,538.949,0.0
54088.0,STARLINK-5153,PAYLOAD,2023-06-19 23:07:01,15.08834349,0.0001195,53.2162,115.2385,93.611,266.5019,0.00010502,1.384e-05,0.0,0 STARLINK-5153,1 54088U 22136AP  23170.96321019  .00001384  00000-0  10502-3 0  9990,2 54088  53.2162 115.2385 0001195  93.6110 266.5019 15.08834349 37438,6917.898,95.438,540.589,538.936,0.0
54088.0,STARLINK-5153,PAYLOAD,2023-06-20 05:28:33,15.08842008,0.0001221,53.2167,114.0497,88.6335,271.4797,0.0001387,1.92e-05,0.0,0 STARLINK-5153,1 54088U 22136AP  23171.22816485  .00001920  00000-0  13870-3 0  9993,2 54088  53.2167 114.0497 0001221  88.6335 271.4797 15.08842008 37470,6917.874,95.437,540.584,538.895,0.0
54088.0,STARLINK-5153,PAYLOAD,2023-06-20 19:47:02,15.08840486,0.0001332,53.2157,111.3734,92.1659,267.9486,3.3812e-05,2.5e-06,0.0,0 STARLINK-5153,1 54088U 22136AP  23171.82432882  .00000250  00000-0  33812-4 0  9998,2 54088  53.2157 111.3734 0001332  92.1659 267.9486 15.08840486 37096,6917.879,95.438,540.665,538.822,0.0
